[{"OBJECT_NAME":"USA 119","OBJECT_ID":"1996-029A","EPOCH":"2026-03-09T10:00:09.129312","MEAN_MOTION":13.45886981,"ECCENTRICITY":0.0846389,"INCLINATION":63.3196,"RA_OF_ASC_NODE":93.119,"ARG_OF_PERICENTER":47.6314,"MEAN_ANOMALY":319.3281,"EPHEMERIS_TYPE":0,"CLASSIFICATION_TYPE":"U","NORAD_CAT_ID":23893,"ELEMENT_SET_NO":999,"REV_AT_EPOCH":9184,"BSTAR":0.00029025737,"MEAN_MOTION_DOT":1.64e-5,"MEAN_MOTION_DDOT":0},{"OBJECT_NAME":"STARLINK-2742","OBJECT_ID":"2021-044BC","EPOCH":"2026-03-09T06:20:40.812864","MEAN_MOTION":15.29359454,"ECCENTRICITY":0.00020807,"INCLINATION":53.1597,"RA_OF_ASC_NODE":66.9855,"ARG_OF_PERICENTER":56.0767,"MEAN_ANOMALY":304.0431,"EPHEMERIS_TYPE":0,"CLASSIFICATION_TYPE":"U","NORAD_CAT_ID":48688,"ELEMENT_SET_NO":999,"REV_AT_EPOCH":26443,"BSTAR":-4.7125579e-5,"MEAN_MOTION_DOT":-1.716e-5,"MEAN_MOTION_DDOT":0}]
